{"type": "FeatureCollection", "features": [ {"type": "Feature", "properties": {"norad_id": 65304, "name": "DRAGON CRS-33", "group": "stations", "lat": 35.28617026788381, "lon": -122.17349850815857, "alt_km": 414.7731392939504, "timestamp": "2025-12-22T22:44:19.685210+00:00", "meta": {"OBJECT_NAME": "DRAGON CRS-33", "OBJECT_ID": "2025-186A", "EPOCH": "2025-12-22T12:53:01.598784", "MEAN_MOTION": 15.49728746, "ECCENTRICITY": 0.00031539, "INCLINATION": 51.6324, "RA_OF_ASC_NODE": 93.9618, "ARG_OF_PERICENTER": 285.9755, "MEAN_ANOMALY": 74.0886, "EPHEMERIS_TYPE": 0, "CLASSIFICATION_TYPE": "U", "NORAD_CAT_ID": 65304, "ELEMENT_SET_NO": 999, "REV_AT_EPOCH": 11, "BSTAR": 0.00021249665, "MEAN_MOTION_DOT": 0.00011576, "MEAN_MOTION_DDOT": 0}, "tle": {"line1": "1 65304U 25186A   25356.53682406  .00011576  00000+0  21250-3 0  9997", "line2": "2 65304  51.6324  93.9618 0003153 285.9755  74.0886 15.49728746   118"}}, "geometry": {"type": "Point", "coordinates": [-122.17349850815857, 35.28617026788381]}}, {"type": "Feature", "properties": {"norad_id": 65586, "name": "PROGRESS-MS 32", "group": "stations", "lat": 35.28616980624008, "lon": -122.17349784592082, "alt_km": 414.7731393564909, "timestamp": "2025-12-22T22:44:19.685221+00:00", "meta": {"OBJECT_NAME": "PROGRESS-MS 32", "OBJECT_ID": "2025-204A", "EPOCH": "2025-12-22T12:53:01.598784", "MEAN_MOTION": 15.49728746, "ECCENTRICITY": 0.00031539, "INCLINATION": 51.6324, "RA_OF_ASC_NODE": 93.9618, "ARG_OF_PERICENTER": 285.9755, "MEAN_ANOMALY": 74.0886, "EPHEMERIS_TYPE": 0, "CLASSIFICATION_TYPE": "U", "NORAD_CAT_ID": 65586, "ELEMENT_SET_NO": 999, "REV_AT_EPOCH": 27, "BSTAR": 0.00021249665, "MEAN_MOTION_DOT": 0.00011576, "MEAN_MOTION_DDOT": 0}, "tle": {"line1": "1 65586U 25204A   25356.53682406  .00011576  00000+0  21250-3 0  9990", "line2": "2 65586  51.6324  93.9618 0003153 285.9755  74.0886 15.49728746   277"}}, "geometry": {"type": "Point", "coordinates": [-122.17349784592082, 35.28616980624008]}}, {"type": "Feature", "properties": {"norad_id": 65616, "name": "CYGNUS NG-23", "group": "stations", "lat": 35.286169302630775, "lon": -122.17349712348256, "alt_km": 414.7731394247203, "timestamp": "2025-12-22T22:44:19.685233+00:00", "meta": {"OBJECT_NAME": "CYGNUS NG-23", "OBJECT_ID": "2025-208A", "EPOCH": "2025-12-22T12:53:01.598784", "MEAN_MOTION": 15.49728746, "ECCENTRICITY": 0.00031539, "INCLINATION": 51.6324, "RA_OF_ASC_NODE": 93.9618, "ARG_OF_PERICENTER": 285.9755, "MEAN_ANOMALY": 74.0886, "EPHEMERIS_TYPE": 0, "CLASSIFICATION_TYPE": "U", "NORAD_CAT_ID": 65616, "ELEMENT_SET_NO": 999, "REV_AT_EPOCH": 22, "BSTAR": 0.00021249665, "MEAN_MOTION_DOT": 0.00011576, "MEAN_MOTION_DDOT": 0}, "tle": {"line1": "1 65616U 25208A   25356.53682406  .00011576  00000+0  21250-3 0  9998", "line2": "2 65616  51.6324  93.9618 0003153 285.9755  74.0886 15.49728746   226"}}, "geometry": {"type": "Point", "coordinates": [-122.17349712348256, 35.286169302630775]}}, {"type": "Feature", "properties": {"norad_id": 65729, "name": "DRAGONFLY", "group": "stations", "lat": -51.49711628974403, "lon": -1.6248715720187787, "alt_km": 346.0802828636506, "timestamp": "2025-12-22T22:44:19.685244+00:00", "meta": {"OBJECT_NAME": "DRAGONFLY", "OBJECT_ID": "1998-067XH", "EPOCH": "2025-12-22T12:26:54.476448", "MEAN_MOTION": 15.75175464, "ECCENTRICITY": 0.00077918, "INCLINATION": 51.6245, "RA_OF_ASC_NODE": 85.5681, "ARG_OF_PERICENTER": 337.4255, "MEAN_ANOMALY": 22.6401, "EPHEMERIS_TYPE": 0, "CLASSIFICATION_TYPE": "U", "NORAD_CAT_ID": 65729, "ELEMENT_SET_NO": 999, "REV_AT_EPOCH": 1470, "BSTAR": 0.001313189, "MEAN_MOTION_DOT": 0.00205699, "MEAN_MOTION_DDOT": 0}, "tle": {"line1": "1 65729U 98067XH  25356.51868607  .00205699  00000+0  13132-2 0  9993", "line2": "2 65729  51.6245  85.5681 0007791 337.4255  22.6401 15.75175464 14702"}}, "geometry": {"type": "Point", "coordinates": [-1.6248715720187787, -51.49711628974403]}}, {"type": "Feature", "properties": {"norad_id": 65731, "name": "1998-067XK", "group": "stations", "lat": 32.07716513032233, "lon": 115.14298178340003, "alt_km": 361.7018867632123, "timestamp": "2025-12-22T22:44:19.685254+00:00", "meta": {"OBJECT_NAME": "1998-067XK", "OBJECT_ID": "1998-067XK", "EPOCH": "2025-12-22T11:50:52.395936", "MEAN_MOTION": 15.67550975, "ECCENTRICITY": 0.00048767, "INCLINATION": 51.6296, "RA_OF_ASC_NODE": 87.6784, "ARG_OF_PERICENTER": 307.2802, "MEAN_ANOMALY": 52.7749, "EPHEMERIS_TYPE": 0, "CLASSIFICATION_TYPE": "U", "NORAD_CAT_ID": 65731, "ELEMENT_SET_NO": 999, "REV_AT_EPOCH": 1467, "BSTAR": 0.00098825287, "MEAN_MOTION_DOT": 0.00110692, "MEAN_MOTION_DDOT": 0}, "tle": {"line1": "1 65731U 98067XK  25356.49366199  .00110692  00000+0  98825-3 0  9993", "line2": "2 65731  51.6296  87.6784 0004876 307.2802  52.7749 15.67550975 14672"}}, "geometry": {"type": "Point", "coordinates": [115.14298178340003, 32.07716513032233]}}, {"type": "Feature", "properties": {"norad_id": 65732, "name": "RSP-03", "group": "stations", "lat": 35.041870220639446, "lon": -129.34351277152197, "alt_km": 354.8408557570365, "timestamp": "2025-12-22T22:44:19.685265+00:00", "meta": {"OBJECT_NAME": "RSP-03", "OBJECT_ID": "1998-067XL", "EPOCH": "2025-12-22T13:00:59.275008", "MEAN_MOTION": 15.71055335, "ECCENTRICITY": 0.00058331, "INCLINATION": 51.6262, "RA_OF_ASC_NODE": 86.4899, "ARG_OF_PERICENTER": 314.1528, "MEAN_ANOMALY": 45.8989, "EPHEMERIS_TYPE": 0, "CLASSIFICATION_TYPE": "U", "NORAD_CAT_ID": 65732, "ELEMENT_SET_NO": 999, "REV_AT_EPOCH": 1470, "BSTAR": 0.0011094477, "MEAN_MOTION_DOT": 0.00144397, "MEAN_MOTION_DDOT": 0}, "tle": {"line1": "1 65732U 98067XL  25356.54235272  .00144397  00000+0  11094-2 0  9998", "line2": "2 65732  51.6262  86.4899 0005833 314.1528  45.8989 15.71055335 14704"}}, "geometry": {"type": "Point", "coordinates": [-129.34351277152197, 35.041870220639446]}}, {"type": "Feature", "properties": {"norad_id": 65733, "name": "GHS-01", "group": "stations", "lat": -34.94174978580652, "lon": 48.920530540627915, "alt_km": 331.16015783244893, "timestamp": "2025-12-22T22:44:19.685277+00:00", "meta": {"OBJECT_NAME": "GHS-01", "OBJECT_ID": "1998-067XM", "EPOCH": "2025-12-22T12:18:19.985184", "MEAN_MOTION": 15.79083462, "ECCENTRICITY": 0.00088517, "INCLINATION": 51.6292, "RA_OF_ASC_NODE": 84.7862, "ARG_OF_PERICENTER": 340.8891, "MEAN_ANOMALY": 19.1777, "EPHEMERIS_TYPE": 0, "CLASSIFICATION_TYPE": "U", "NORAD_CAT_ID": 65733, "ELEMENT_SET_NO": 999, "REV_AT_EPOCH": 1472, "BSTAR": 0.0014795008, "MEAN_MOTION_DOT": 0.00278334, "MEAN_MOTION_DDOT": 0}, "tle": {"line1": "1 65733U 98067XM  25356.51273131  .00278334  00000+0  14795-2 0  9992", "line2": "2 65733  51.6292  84.7862 0008851 340.8891  19.1777 15.79083462 14722"}}, "geometry": {"type": "Point", "coordinates": [48.920530540627915, -34.94174978580652]}}, {"type": "Feature", "properties": {"norad_id": 65941, "name": "YOTSUBA-KULOVER", "group": "stations", "lat": -50.1268921930777, "lon": 17.086766481529875, "alt_km": 389.3058775930822, "timestamp": "2025-12-22T22:44:19.685288+00:00", "meta": {"OBJECT_NAME": "YOTSUBA-KULOVER", "OBJECT_ID": "1998-067XN", "EPOCH": "2025-12-22T12:18:58.548960", "MEAN_MOTION": 15.60714996, "ECCENTRICITY": 0.00021092, "INCLINATION": 51.6295, "RA_OF_ASC_NODE": 90.8089, "ARG_OF_PERICENTER": 341.8055, "MEAN_ANOMALY": 18.2862, "EPHEMERIS_TYPE": 0, "CLASSIFICATION_TYPE": "U", "NORAD_CAT_ID": 65941, "ELEMENT_SET_NO": 999, "REV_AT_EPOCH": 1138, "BSTAR": 0.00080270144, "MEAN_MOTION_DOT": 0.00068061, "MEAN_MOTION_DDOT": 0}, "tle": {"line1": "1 65941U 98067XN  25356.51317765  .00068061  00000+0  80270-3 0  9991", "line2": "2 65941  51.6295  90.8089 0002109 341.8055  18.2862 15.60714996 11385"}}, "geometry": {"type": "Point", "coordinates": [17.086766481529875, -50.1268921930777]}}, {"type": "Feature", "properties": {"norad_id": 65942, "name": "BOTAN", "group": "stations", "lat": 23.21471776676904, "lon": 107.51092974149638, "alt_km": 369.9134704894186, "timestamp": "2025-12-22T22:44:19.685298+00:00", "meta": {"OBJECT_NAME": "BOTAN", "OBJECT_ID": "1998-067XP", "EPOCH": "2025-12-22T07:17:02.509728", "MEAN_MOTION": 15.64805517, "ECCENTRICITY": 0.00031122, "INCLINATION": 51.6283, "RA_OF_ASC_NODE": 90.9078, "ARG_OF_PERICENTER": 318.7343, "MEAN_ANOMALY": 41.3416, "EPHEMERIS_TYPE": 0, "CLASSIFICATION_TYPE": "U", "NORAD_CAT_ID": 65942, "ELEMENT_SET_NO": 999, "REV_AT_EPOCH": 1136, "BSTAR": 0.0012003898, "MEAN_MOTION_DOT": 0.0012058, "MEAN_MOTION_DDOT": 0}, "tle": {"line1": "1 65942U 98067XP  25356.30350127  .00120580  00000+0  12004-2 0  9992", "line2": "2 65942  51.6283  90.9078 0003112 318.7343  41.3416 15.64805517 11364"}}, "geometry": {"type": "Point", "coordinates": [107.51092974149638, 23.21471776676904]}}, {"type": "Feature", "properties": {"norad_id": 65943, "name": "E-KAGAKU-1", "group": "stations", "lat": -50.269140252039335, "lon": 16.220937925418475, "alt_km": 389.1254272001879, "timestamp": "2025-12-22T22:44:19.685309+00:00", "meta": {"OBJECT_NAME": "E-KAGAKU-1", "OBJECT_ID": "1998-067XQ", "EPOCH": "2025-12-22T10:46:55.533504", "MEAN_MOTION": 15.60710313, "ECCENTRICITY": 0.00012968, "INCLINATION": 51.6319, "RA_OF_ASC_NODE": 91.1385, "ARG_OF_PERICENTER": 295.9007, "MEAN_ANOMALY": 64.1852, "EPHEMERIS_TYPE": 0, "CLASSIFICATION_TYPE": "U", "NORAD_CAT_ID": 65943, "ELEMENT_SET_NO": 999, "REV_AT_EPOCH": 1137, "BSTAR": 0.00086344374, "MEAN_MOTION_DOT": 0.00073283, "MEAN_MOTION_DDOT": 0}, "tle": {"line1": "1 65943U 98067XQ  25356.44925386  .00073283  00000+0  86344-3 0  9999", "line2": "2 65943  51.6319  91.1385 0001296 295.9007  64.1852 15.60710313 11376"}}, "geometry": {"type": "Point", "coordinates": [16.220937925418475, -50.269140252039335]}}]}